NORAD_CAT_ID,OBJECT_NAME,OBJECT_TYPE,EPOCH,MEAN_MOTION,ECCENTRICITY,INCLINATION,RA_OF_ASC_NODE,ARG_OF_PERICENTER,MEAN_ANOMALY,BSTAR,MEAN_MOTION_DOT,MEAN_MOTION_DDOT,TLE_LINE0,TLE_LINE1,TLE_LINE2,SEMIMAJOR_AXIS,PERIOD,APOGEE,PERIGEE,DECAYED
52090.0,STARLINK-3712,PAYLOAD,2024-05-06 13:01:23,15.08857437,0.000153,53.2158,226.5054,88.4151,271.7016,0.00055484,8.557e-05,0.0,0 STARLINK-3712,1 52090U 22029C   24127.54263690  .00008557  00000-0  55484-3 0  9996,2 52090  53.2158 226.5054 0001530  88.4151 271.7016 15.08857437119184,6917.827,95.436,540.751,538.634,0.0
52090.0,STARLINK-3712,PAYLOAD,2024-05-07 12:52:10,15.08848238,0.0001118,53.2165,222.0447,88.5512,271.5609,0.00037427,5.675e-05,0.0,0 STARLINK-3712,1 52090U 22029C   24128.53623750  .00005675  00000-0  37427-3 0  9998,2 52090  53.2165 222.0447 0001118  88.5512 271.5609 15.08848238119335,6917.855,95.437,540.494,538.947,0.0
52090.0,STARLINK-3712,PAYLOAD,2024-05-07 16:02:57,15.08848566,0.0001175,53.2166,221.4503,88.0535,272.0591,0.00046016,7.045e-05,0.0,0 STARLINK-3712,1 52090U 22029C   24128.66871731  .00007045  00000-0  46016-3 0  9993,2 52090  53.2166 221.4503 0001175  88.0535 272.0591 15.08848566119357,6917.854,95.437,540.532,538.906,0.0
52090.0,STARLINK-3712,PAYLOAD,2024-05-08 12:42:58,15.0884576,0.0001286,53.2155,217.5825,86.7476,273.3664,0.00030411,4.556e-05,0.0,0 STARLINK-3712,1 52090U 22029C   24129.52983927  .00004556  00000-0  30411-3 0  9996,2 52090  53.2155 217.5825 0001286  86.7476 273.3664 15.08845760119482,6917.863,95.437,540.617,538.838,0.0
52090.0,STARLINK-3712,PAYLOAD,2024-05-08 22:15:16,15.08846495,0.0001408,53.2157,215.8013,76.566,283.5489,0.00027748,4.132e-05,0.0,0 STARLINK-3712,1 52090U 22029C   24129.92727993  .00004132  00000-0  27748-3 0  9998,2 52090  53.2157 215.8013 0001408  76.5660 283.5489 15.08846495119543,6917.861,95.437,540.7,538.752,0.0
52090.0,STARLINK-3712,PAYLOAD,2024-05-09 12:33:45,15.08843463,0.0001354,53.2173,213.1295,98.442,261.6726,0.00016316,2.31e-05,0.0,0 STARLINK-3712,1 52090U 22029C   24130.52344068  .00002310  00000-0  16316-3 0  9999,2 52090  53.2173 213.1295 0001354  98.4420 261.6726 15.08843463119634,6917.87,95.437,540.671,538.798,0.0
52090.0,STARLINK-3712,PAYLOAD,2024-05-10 04:27:37,15.08837941,0.0001435,53.2171,210.157,99.7827,260.3327,0.00012843,1.756e-05,0.0,0 STARLINK-3712,1 52090U 22029C   24131.18584546  .00001756  00000-0  12843-3 0  9993,2 52090  53.2171 210.1570 0001435  99.7827 260.3327 15.08837941119738,6917.887,95.438,540.744,538.759,0.0
52090.0,STARLINK-3712,PAYLOAD,2024-05-10 12:24:32,15.08836348,0.0001335,53.216,208.6673,94.3541,265.7604,1.6729e-06,-2.61e-06,0.0,0 STARLINK-3712,1 52090U 22029C   24131.51704817 -.00000261  00000-0  16729-5 0  9995,2 52090  53.2160 208.6673 0001335  94.3541 265.7604 15.08836348119787,6917.892,95.438,540.68,538.833,0.0
52090.0,STARLINK-3712,PAYLOAD,2024-05-11 12:15:16,15.0893315,0.0001551,53.2162,204.2065,79.7534,280.3633,0.0018204,0.00028877,0.0,0 STARLINK-3712,1 52090U 22029C   24132.51060965  .00028877  00000-0  18204-2 0  9994,2 52090  53.2162 204.2065 0001551  79.7534 280.3633 15.08933150119936,6917.596,95.432,540.534,538.388,0.0
52090.0,STARLINK-3712,PAYLOAD,2024-05-11 21:47:36,15.08869604,0.0002475,53.2167,202.4223,66.7013,293.424,0.00036172,5.478e-05,0.0,0 STARLINK-3712,1 52090U 22029C   24132.90806111  .00005478  00000-0  36172-3 0  9995,2 52090  53.2167 202.4223 0002475  66.7013 293.4240 15.08869604119998,6917.79,95.436,541.367,537.943,0.0
52090.0,STARLINK-3712,PAYLOAD,2024-05-12 04:09:11,15.08773889,0.000255,53.2156,201.2342,84.737,275.3913,-0.0018849,-0.00030109,0.0,0 STARLINK-3712,1 52090U 22029C   24133.17305328 -.00030109  00000-0 -18849-2 0  9990,2 52090  53.2156 201.2342 0002550  84.7370 275.3913 15.08773889120037,6918.082,95.442,541.712,538.183,0.0
52090.0,STARLINK-3712,PAYLOAD,2024-05-12 10:30:45,15.08741576,0.0001572,53.2149,200.0421,82.4592,277.6579,-0.0022587,-0.0003596,0.0,0 STARLINK-3712,1 52090U 22029C   24133.43803179 -.00035960  00000-0 -22587-2 0  9990,2 52090  53.2149 200.0421 0001572  82.4592 277.6579 15.08741576120073,6918.181,95.444,541.134,538.959,0.0
52090.0,STARLINK-3712,PAYLOAD,2024-05-12 21:38:29,15.08759815,0.0001717,53.2165,197.9597,67.9692,292.1482,-0.00096338,-0.00015554,0.0,0 STARLINK-3712,1 52090U 22029C   24133.90173194 -.00015554  00000-0 -96338-3 0  9992,2 52090  53.2165 197.9597 0001717  67.9692 292.1482 15.08759815120147,6918.125,95.443,541.178,538.803,0.0
52090.0,STARLINK-3712,PAYLOAD,2024-05-13 10:21:32,15.08868146,0.0002269,53.2163,195.5793,86.9446,273.1806,0.0016675,0.00026371,0.0,0 STARLINK-3712,1 52090U 22029C   24134.43162596  .00026371  00000-0  16675-2 0  9997,2 52090  53.2163 195.5793 0002269  86.9446 273.1806 15.08868146120224,6917.794,95.436,541.229,538.09,0.0
52090.0,STARLINK-3712,PAYLOAD,2024-05-14 10:12:19,15.08842493,0.0002091,53.2164,191.1207,82.7074,277.4155,0.0012543,0.00019732,0.0,0 STARLINK-3712,1 52090U 22029C   24135.42522857  .00019732  00000-0  12543-2 0  9990,2 52090  53.2164 191.1207 0002091  82.7074 277.4155 15.08842493120378,6917.873,95.437,541.184,538.291,0.0
52090.0,STARLINK-3712,PAYLOAD,2024-05-15 10:03:04,15.0886407,0.0002204,53.2181,186.6565,82.825,277.2993,-0.00030314,-5.113e-05,0.0,0 STARLINK-3712,1 52090U 22029C   24136.41880592 -.00005113  00000-0 -30314-3 0  9990,2 52090  53.2181 186.6565 0002204  82.8250 277.2993 15.08864070120526,6917.807,95.436,541.197,538.147,0.0
52090.0,STARLINK-3712,PAYLOAD,2024-05-16 08:18:30,15.08819077,0.0001998,53.2168,182.4945,93.9693,266.1527,0.00017713,2.53e-05,0.0,0 STARLINK-3712,1 52090U 22029C   24137.34618450  .00002530  00000-0  17713-3 0  9991,2 52090  53.2168 182.4945 0001998  93.9693 266.1527 15.08819077120662,6917.944,95.439,541.192,538.427,0.0
52090.0,STARLINK-3712,PAYLOAD,2024-05-16 19:26:11,15.0883754,0.0001931,53.2177,180.4144,89.0417,271.0796,-3.7045e-05,-8.78e-06,0.0,0 STARLINK-3712,1 52090U 22029C   24137.80986019 -.00000878  00000-0 -37045-4 0  9997,2 52090  53.2177 180.4144 0001931  89.0417 271.0796 15.08837540120734,6917.888,95.438,541.089,538.417,0.0
52090.0,STARLINK-3712,PAYLOAD,2024-05-17 09:44:38,15.08859821,0.0001843,53.2164,177.7366,86.4599,273.6604,0.00046437,7.114e-05,0.0,0 STARLINK-3712,1 52090U 22029C   24138.40600688  .00007114  00000-0  46437-3 0  9991,2 52090  53.2164 177.7366 0001843  86.4599 273.6604 15.08859821120821,6917.82,95.436,540.96,538.41,0.0
52090.0,STARLINK-3712,PAYLOAD,2024-05-17 19:16:58,15.08847424,0.0001652,53.2154,175.9537,87.5109,272.6073,0.0002367,3.482e-05,0.0,0 STARLINK-3712,1 52090U 22029C   24138.80345076  .00003482  00000-0  23670-3 0  9990,2 52090  53.2154 175.9537 0001652  87.5109 272.6073 15.08847424120888,6917.858,95.437,540.866,538.58,0.0
52090.0,STARLINK-3712,PAYLOAD,2024-05-18 09:35:25,15.08862403,0.0001741,53.2148,173.2754,81.5182,278.6007,0.00037327,5.661e-05,0.0,0 STARLINK-3712,1 52090U 22029C   24139.39960375  .00005661  00000-0  37327-3 0  9995,2 52090  53.2148 173.2754 0001741  81.5182 278.6007 15.08862403120974,6917.812,95.436,540.881,538.473,0.0
52090.0,STARLINK-3712,PAYLOAD,2024-05-18 19:07:45,15.08843391,0.0001762,53.2144,171.4908,75.3409,284.7778,4.7274e-05,4.64e-06,0.0,0 STARLINK-3712,1 52090U 22029C   24139.79705207  .00000464  00000-0  47274-4 0  9999,2 52090  53.2144 171.4908 0001762  75.3409 284.7778 15.08843391121033,6917.87,95.437,540.954,538.516,0.0
52090.0,STARLINK-3712,PAYLOAD,2024-05-19 01:29:18,15.08824338,0.0001795,53.2146,170.3021,81.8147,278.3048,-0.00028719,-4.854e-05,0.0,0 STARLINK-3712,1 52090U 22029C   24140.06202233 -.00004854  00000-0 -28719-3 0  9993,2 52090  53.2146 170.3021 0001795  81.8147 278.3048 15.08824338121079,6917.928,95.439,541.035,538.551,0.0
52090.0,STARLINK-3712,PAYLOAD,2024-05-19 09:26:14,15.08830231,0.0001767,53.2152,168.8168,87.8635,272.2559,-0.00033631,-5.635e-05,0.0,0 STARLINK-3712,1 52090U 22029C   24140.39322123 -.00005635  00000-0 -33631-3 0  9997,2 52090  53.2152 168.8168 0001767  87.8635 272.2559 15.08830231121122,6917.91,95.438,540.998,538.553,0.0
52090.0,STARLINK-3712,PAYLOAD,2024-05-20 10:52:24,15.0884551,0.0001728,53.2153,164.0589,95.3917,264.7273,0.00020188,2.927e-05,0.0,0 STARLINK-3712,1 52090U 22029C   24141.45305922  .00002927  00000-0  20188-3 0  9995,2 52090  53.2153 164.0589 0001728  95.3917 264.7273 15.08845510121284,6917.864,95.437,540.924,538.533,0.0
52090.0,STARLINK-3712,PAYLOAD,2024-05-21 01:10:53,15.08837772,0.0001846,53.2158,161.3832,90.1613,269.9591,0.00035192,5.317e-05,0.0,0 STARLINK-3712,1 52090U 22029C   24142.04922593  .00005317  00000-0  35192-3 0  9997,2 52090  53.2158 161.3832 0001846  90.1613 269.9591 15.08837772121378,6917.887,95.438,541.029,538.475,0.0
52090.0,STARLINK-3712,PAYLOAD,2024-05-21 07:32:25,15.08842439,0.0001784,53.2152,160.1923,96.0859,264.0337,0.00028793,4.298e-05,0.0,0 STARLINK-3712,1 52090U 22029C   24142.31418435  .00004298  00000-0  28793-3 0  9998,2 52090  53.2152 160.1923 0001784  96.0859 264.0337 15.08842439121413,6917.873,95.437,540.972,538.504,0.0
52090.0,STARLINK-3712,PAYLOAD,2024-05-22 10:33:57,15.08854882,0.0001845,53.2156,155.1384,91.8125,268.3078,0.0002259,3.31e-05,0.0,0 STARLINK-3712,1 52090U 22029C   24143.44025450  .00003310  00000-0  22590-3 0  9997,2 52090  53.2156 155.1384 0001845  91.8125 268.3078 15.08854882121581,6917.835,95.437,540.976,538.424,0.0
52090.0,STARLINK-3712,PAYLOAD,2024-05-23 04:03:12,15.08843877,0.0002111,53.2149,151.8634,120.1079,240.0123,5.2954e-05,5.55e-06,0.0,0 STARLINK-3712,1 52090U 22029C   24144.16889638  .00000555  00000-0  52954-4 0  9999,2 52090  53.2149 151.8634 0002111 120.1079 240.0123 15.08843877121697,6917.869,95.437,541.194,538.273,0.0
52090.0,STARLINK-3712,PAYLOAD,2024-05-23 10:24:45,15.08841763,0.000166,53.2156,150.6777,95.0748,265.0433,3.4813e-05,2.66e-06,0.0,0 STARLINK-3712,1 52090U 22029C   24144.43385893  .00000266  00000-0  34813-4 0  9996,2 52090  53.2156 150.6777 0001660  95.0748 265.0433 15.08841763121739,6917.875,95.437,540.888,538.592,0.0
